ONEWEB-0137             
1 47283U 20100AB  26145.12558809  .00000193  00000+0  50027-3 0  9992
2 47283  87.8963 355.2447 0001872  88.6239 271.5104 13.12441588261546
ONEWEB-0138             
1 47284U 20100AC  26145.02732911  .00000410  00000+0  11040-2 0  9993
2 47284  87.8961 355.2707 0001544  86.2770 273.8535 13.12442381261617
ONEWEB-0139             
1 47285U 20100AD  26145.14436530 -.00000396  00000+0 -11355-2 0  9999
2 47285  87.8958 355.2338 0001728  86.7994 273.3332 13.12443400261704
ONEWEB-0140             
1 47286U 20100AE  26145.09848067  .00000257  00000+0  68029-3 0  9991
2 47286  87.8962 355.2334 0001808  80.5228 279.6105 13.12443213261661
ONEWEB-0141             
1 47287U 20100AF  26145.14408508 -.00000341  00000+0 -98459-3 0  9996
2 47287  87.8959 355.2294 0001979  93.9518 266.1836 13.12442168261651
ONEWEB-0142             
1 47288U 20100AG  26145.13250491 -.00000005  00000+0 -50240-4 0  9996
2 47288  87.8953 355.2548 0001701  99.8879 260.2441 13.12440699261649
ONEWEB-0143             
1 47289U 20100AH  26145.06628962 -.00000377  00000+0 -10831-2 0  9993
2 47289  87.8958 355.2653 0001806  86.4538 273.6797 13.12442085261612
ONEWEB-0144             
1 47290U 20100AJ  26145.11372817  .00000453  00000+0  12241-2 0  9996
2 47290  87.8964 355.2291 0001489  93.2270 266.9029 13.12441504261545
ONEWEB-0145             
1 47291U 20100AK  26145.08492675 -.00000236  00000+0 -69057-3 0  9997
2 47291  87.8953 355.2651 0001724  88.2147 271.9179 13.12442975261739
ONEWEB-0146             
1 47292U 20100AL  26145.08153882 -.00000324  00000+0 -93527-3 0  9999
2 47292  87.8959 355.2557 0002039  78.5506 281.5851 13.12443255261648
ONEWEB-0147             
1 47293U 20100AM  26145.12389692  .00000194  00000+0  50493-3 0  9993
2 47293  87.8960 355.2288 0001680  81.7720 278.3599 13.12441366261540
ONEWEB-0115             
1 48042U 21025A   26145.01772308  .00000250  00000+0  64958-3 0  9995
2 48042  87.8946 324.8386 0001821  90.0184 270.1154 13.13468939250554
ONEWEB-0152             
1 48043U 21025B   26144.95508882  .00000348  00000+0  91833-3 0  9992
2 48043  87.8942 324.8476 0001836  87.3431 272.7909 13.13468563250505
ONEWEB-0153             
1 48044U 21025C   26145.00925922  .00000070  00000+0  15548-3 0  9999
2 48044  87.8940 324.8409 0001774  94.3661 265.7671 13.13469352250509
ONEWEB-0154             
1 48045U 21025D   26145.00586420 -.00000074  00000+0 -23877-3 0  9996
2 48045  87.8941 324.8388 0001725  89.5849 270.5478 13.13469584250468
ONEWEB-0116             
1 48046U 21025E   26145.19715602  .00000124  00000+0  30358-3 0  9999
2 48046  87.8951 324.7959 0001829  87.0354 273.0984 13.13471286250633
