[{"OBJECT_NAME":"ONEWEB-0137","OBJECT_ID":"2020-100AB","EPOCH":"2026-05-25T03:00:50.810976","MEAN_MOTION":13.12441588,"ECCENTRICITY":0.0001872,"INCLINATION":87.8963,"RA_OF_ASC_NODE":355.2447,"ARG_OF_PERICENTER":88.6239,"MEAN_ANOMALY":271.5104,"EPHEMERIS_TYPE":0,"CLASSIFICATION_TYPE":"U","NORAD_CAT_ID":47283,"ELEMENT_SET_NO":999,"REV_AT_EPOCH":26154,"BSTAR":0.00050027,"MEAN_MOTION_DOT":1.93e-06,"MEAN_MOTION_DDOT":0.0},{"OBJECT_NAME":"ONEWEB-0138","OBJECT_ID":"2020-100AC","EPOCH":"2026-05-25T00:39:21.235104","MEAN_MOTION":13.12442381,"ECCENTRICITY":0.0001544,"INCLINATION":87.8961,"RA_OF_ASC_NODE":355.2707,"ARG_OF_PERICENTER":86.277,"MEAN_ANOMALY":273.8535,"EPHEMERIS_TYPE":0,"CLASSIFICATION_TYPE":"U","NORAD_CAT_ID":47284,"ELEMENT_SET_NO":999,"REV_AT_EPOCH":26161,"BSTAR":0.001104,"MEAN_MOTION_DOT":4.1e-06,"MEAN_MOTION_DDOT":0.0},{"OBJECT_NAME":"ONEWEB-0139","OBJECT_ID":"2020-100AD","EPOCH":"2026-05-25T03:27:53.161920","MEAN_MOTION":13.124434,"ECCENTRICITY":0.0001728,"INCLINATION":87.8958,"RA_OF_ASC_NODE":355.2338,"ARG_OF_PERICENTER":86.7994,"MEAN_ANOMALY":273.3332,"EPHEMERIS_TYPE":0,"CLASSIFICATION_TYPE":"U","NORAD_CAT_ID":47285,"ELEMENT_SET_NO":999,"REV_AT_EPOCH":26170,"BSTAR":-0.0011355,"MEAN_MOTION_DOT":-3.96e-06,"MEAN_MOTION_DDOT":0.0},{"OBJECT_NAME":"ONEWEB-0140","OBJECT_ID":"2020-100AE","EPOCH":"2026-05-25T02:21:48.729888","MEAN_MOTION":13.12443213,"ECCENTRICITY":0.0001808,"INCLINATION":87.8962,"RA_OF_ASC_NODE":355.2334,"ARG_OF_PERICENTER":80.5228,"MEAN_ANOMALY":279.6105,"EPHEMERIS_TYPE":0,"CLASSIFICATION_TYPE":"U","NORAD_CAT_ID":47286,"ELEMENT_SET_NO":999,"REV_AT_EPOCH":26166,"BSTAR":0.00068029,"MEAN_MOTION_DOT":2.57e-06,"MEAN_MOTION_DDOT":0.0},{"OBJECT_NAME":"ONEWEB-0141","OBJECT_ID":"2020-100AF","EPOCH":"2026-05-25T03:27:28.950912","MEAN_MOTION":13.12442168,"ECCENTRICITY":0.0001979,"INCLINATION":87.8959,"RA_OF_ASC_NODE":355.2294,"ARG_OF_PERICENTER":93.9518,"MEAN_ANOMALY":266.1836,"EPHEMERIS_TYPE":0,"CLASSIFICATION_TYPE":"U","NORAD_CAT_ID":47287,"ELEMENT_SET_NO":999,"REV_AT_EPOCH":26165,"BSTAR":-0.00098459,"MEAN_MOTION_DOT":-3.41e-06,"MEAN_MOTION_DDOT":0.0},{"OBJECT_NAME":"ONEWEB-0142","OBJECT_ID":"2020-100AG","EPOCH":"2026-05-25T03:10:48.424224","MEAN_MOTION":13.12440699,"ECCENTRICITY":0.0001701,"INCLINATION":87.8953,"RA_OF_ASC_NODE":355.2548,"ARG_OF_PERICENTER":99.8879,"MEAN_ANOMALY":260.2441,"EPHEMERIS_TYPE":0,"CLASSIFICATION_TYPE":"U","NORAD_CAT_ID":47288,"ELEMENT_SET_NO":999,"REV_AT_EPOCH":26164,"BSTAR":-5.024e-05,"MEAN_MOTION_DOT":-5e-08,"MEAN_MOTION_DDOT":0.0},{"OBJECT_NAME":"ONEWEB-0143","OBJECT_ID":"2020-100AH","EPOCH":"2026-05-25T01:35:27.423168","MEAN_MOTION":13.12442085,"ECCENTRICITY":0.0001806,"INCLINATION":87.8958,"RA_OF_ASC_NODE":355.2653,"ARG_OF_PERICENTER":86.4538,"MEAN_ANOMALY":273.6797,"EPHEMERIS_TYPE":0,"CLASSIFICATION_TYPE":"U","NORAD_CAT_ID":47289,"ELEMENT_SET_NO":999,"REV_AT_EPOCH":26161,"BSTAR":-0.0010831,"MEAN_MOTION_DOT":-3.77e-06,"MEAN_MOTION_DDOT":0.0},{"OBJECT_NAME":"ONEWEB-0144","OBJECT_ID":"2020-100AJ","EPOCH":"2026-05-25T02:43:46.113888","MEAN_MOTION":13.12441504,"ECCENTRICITY":0.0001489,"INCLINATION":87.8964,"RA_OF_ASC_NODE":355.2291,"ARG_OF_PERICENTER":93.227,"MEAN_ANOMALY":266.9029,"EPHEMERIS_TYPE":0,"CLASSIFICATION_TYPE":"U","NORAD_CAT_ID":47290,"ELEMENT_SET_NO":999,"REV_AT_EPOCH":26154,"BSTAR":0.0012241,"MEAN_MOTION_DOT":4.53e-06,"MEAN_MOTION_DDOT":0.0},{"OBJECT_NAME":"ONEWEB-0145","OBJECT_ID":"2020-100AK","EPOCH":"2026-05-25T02:02:17.671200","MEAN_MOTION":13.12442975,"ECCENTRICITY":0.0001724,"INCLINATION":87.8953,"RA_OF_ASC_NODE":355.2651,"ARG_OF_PERICENTER":88.2147,"MEAN_ANOMALY":271.9179,"EPHEMERIS_TYPE":0,"CLASSIFICATION_TYPE":"U","NORAD_CAT_ID":47291,"ELEMENT_SET_NO":999,"REV_AT_EPOCH":26173,"BSTAR":-0.00069057,"MEAN_MOTION_DOT":-2.36e-06,"MEAN_MOTION_DDOT":0.0},{"OBJECT_NAME":"ONEWEB-0146","OBJECT_ID":"2020-100AL","EPOCH":"2026-05-25T01:57:24.954048","MEAN_MOTION":13.12443255,"ECCENTRICITY":0.0002039,"INCLINATION":87.8959,"RA_OF_ASC_NODE":355.2557,"ARG_OF_PERICENTER":78.5506,"MEAN_ANOMALY":281.5851,"EPHEMERIS_TYPE":0,"CLASSIFICATION_TYPE":"U","NORAD_CAT_ID":47292,"ELEMENT_SET_NO":999,"REV_AT_EPOCH":26164,"BSTAR":-0.0009352700000000001,"MEAN_MOTION_DOT":-3.24e-06,"MEAN_MOTION_DDOT":0.0},{"OBJECT_NAME":"ONEWEB-0147","OBJECT_ID":"2020-100AM","EPOCH":"2026-05-25T02:58:24.693888","MEAN_MOTION":13.12441366,"ECCENTRICITY":0.000168,"INCLINATION":87.896,"RA_OF_ASC_NODE":355.2288,"ARG_OF_PERICENTER":81.772,"MEAN_ANOMALY":278.3599,"EPHEMERIS_TYPE":0,"CLASSIFICATION_TYPE":"U","NORAD_CAT_ID":47293,"ELEMENT_SET_NO":999,"REV_AT_EPOCH":26154,"BSTAR":0.00050493,"MEAN_MOTION_DOT":1.94e-06,"MEAN_MOTION_DDOT":0.0},{"OBJECT_NAME":"ONEWEB-0115","OBJECT_ID":"2021-025A","EPOCH":"2026-05-25T00:25:31.274112","MEAN_MOTION":13.13468939,"ECCENTRICITY":0.0001821,"INCLINATION":87.8946,"RA_OF_ASC_NODE":324.8386,"ARG_OF_PERICENTER":90.0184,"MEAN_ANOMALY":270.1154,"EPHEMERIS_TYPE":0,"CLASSIFICATION_TYPE":"U","NORAD_CAT_ID":48042,"ELEMENT_SET_NO":999,"REV_AT_EPOCH":25055,"BSTAR":0.0006495800000000001,"MEAN_MOTION_DOT":2.5e-06,"MEAN_MOTION_DDOT":0.0},{"OBJECT_NAME":"ONEWEB-0152","OBJECT_ID":"2021-025B","EPOCH":"2026-05-24T22:55:19.674048","MEAN_MOTION":13.13468563,"ECCENTRICITY":0.0001836,"INCLINATION":87.8942,"RA_OF_ASC_NODE":324.8476,"ARG_OF_PERICENTER":87.3431,"MEAN_ANOMALY":272.7909,"EPHEMERIS_TYPE":0,"CLASSIFICATION_TYPE":"U","NORAD_CAT_ID":48043,"ELEMENT_SET_NO":999,"REV_AT_EPOCH":25050,"BSTAR":0.00091833,"MEAN_MOTION_DOT":3.48e-06,"MEAN_MOTION_DDOT":0.0},{"OBJECT_NAME":"ONEWEB-0153","OBJECT_ID":"2021-025C","EPOCH":"2026-05-25T00:13:19.996608","MEAN_MOTION":13.13469352,"ECCENTRICITY":0.0001774,"INCLINATION":87.894,"RA_OF_ASC_NODE":324.8409,"ARG_OF_PERICENTER":94.3661,"MEAN_ANOMALY":265.7671,"EPHEMERIS_TYPE":0,"CLASSIFICATION_TYPE":"U","NORAD_CAT_ID":48044,"ELEMENT_SET_NO":999,"REV_AT_EPOCH":25050,"BSTAR":0.00015548000000000002,"MEAN_MOTION_DOT":7e-07,"MEAN_MOTION_DDOT":0.0},{"OBJECT_NAME":"ONEWEB-0154","OBJECT_ID":"2021-025D","EPOCH":"2026-05-25T00:08:26.666880","MEAN_MOTION":13.13469584,"ECCENTRICITY":0.0001725,"INCLINATION":87.8941,"RA_OF_ASC_NODE":324.8388,"ARG_OF_PERICENTER":89.5849,"MEAN_ANOMALY":270.5478,"EPHEMERIS_TYPE":0,"CLASSIFICATION_TYPE":"U","NORAD_CAT_ID":48045,"ELEMENT_SET_NO":999,"REV_AT_EPOCH":25046,"BSTAR":-0.00023877000000000002,"MEAN_MOTION_DOT":-7.4e-07,"MEAN_MOTION_DDOT":0.0},{"OBJECT_NAME":"ONEWEB-0116","OBJECT_ID":"2021-025E","EPOCH":"2026-05-25T04:43:54.280128","MEAN_MOTION":13.13471286,"ECCENTRICITY":0.0001829,"INCLINATION":87.8951,"RA_OF_ASC_NODE":324.7959,"ARG_OF_PERICENTER":87.0354,"MEAN_ANOMALY":273.0984,"EPHEMERIS_TYPE":0,"CLASSIFICATION_TYPE":"U","NORAD_CAT_ID":48046,"ELEMENT_SET_NO":999,"REV_AT_EPOCH":25063,"BSTAR":0.00030358,"MEAN_MOTION_DOT":1.24e-06,"MEAN_MOTION_DDOT":0.0}]